ONEWEB-0277             
1 48995U 21060AE  26159.23170843  .00000032  00000+0  51250-4 0  9996
2 48995  87.9095 230.5626 0001887 100.5111 259.6233 13.16593268238380
ONEWEB-0278             
1 48996U 21060AF  26160.13415436 -.00000040  00000+0 -13815-3 0  9993
2 48996  87.9103 230.3728 0002268 102.1127 258.0258 13.16596594238634
ONEWEB-0279             
1 48997U 21060AG  26159.23012397  .00000023  00000+0  26508-4 0  9995
2 48997  87.9101 230.5509 0001826  95.3003 264.8336 13.16594267238443
ONEWEB-0280             
1 48998U 21060AH  26159.24515189  .00000072  00000+0  15576-3 0  9990
2 48998  87.9099 230.5521 0001993 109.3350 250.7996 13.16593938238383
ONEWEB-0281             
1 48999U 21060AJ  26159.70669116 -.00000054  00000+0 -17511-3 0  9995
2 48999  87.9099 230.4555 0002104 100.1169 260.0199 13.16594021238510
ONEWEB-0282             
1 49000U 21060AK  26160.19273372  .00000048  00000+0  91863-4 0  9993
2 49000  87.9100 230.3674 0001897 101.7786 258.3558 13.16597191238552
ONEWEB-0283             
1 49001U 21060AL  26160.18166409  .00000181  00000+0  44060-3 0  9999
2 49001  87.9099 230.3691 0001886  97.3485 262.7861 13.16594187238562
ONEWEB-0284             
1 49002U 21060AM  26160.09934110  .00000052  00000+0  10231-3 0  9992
2 49002  87.9099 230.3787 0002145 108.2714 251.8650 13.16593649238539
ONEWEB-0285             
1 49075U 21075A   26160.05536963  .00000421  00000+0  11358-2 0  9998
2 49075  87.8949 352.2795 0001744  89.7280 270.4049 13.12443644234147
ONEWEB-0286             
1 49076U 21075B   26160.03743567 -.00000126  00000+0 -38553-3 0  9998
2 49076  87.8937 352.3007 0002021  87.1622 272.9738 13.12443493233494
ONEWEB-0287             
1 49077U 21075C   26160.11741730 -.00000001  00000+0 -35979-4 0  9990
2 49077  87.9139   7.4714 0002268  87.9194 272.2197 13.17648955232562
ONEWEB-0288             
1 49078U 21075D   26160.09009090 -.00000246  00000+0 -71897-3 0  9993
2 49078  87.8948 352.2659 0001976  92.5688 267.5666 13.12442089234121
ONEWEB-0289             
1 49079U 21075E   26160.08015757  .00000031  00000+0  46418-4 0  9992
2 49079  87.9142   7.4955 0001701  99.1459 260.9865 13.17648643233139
ONEWEB-0290             
1 49080U 21075F   26160.05329714 -.00000004  00000+0 -43849-4 0  9999
2 49080  87.9150   7.4720 0001594 101.5320 258.5991 13.17648414232548
ONEWEB-0291             
1 49081U 21075G   26160.11404560  .00000006  00000+0 -18338-4 0  9996
2 49081  87.9142   7.4682 0002099  95.0133 265.1238 13.17648457232542
ONEWEB-0293             
1 49082U 21075H   26160.06341080 -.00000015  00000+0 -72516-4 0  9997
2 49082  87.9138   7.4818 0001824  91.2092 268.9248 13.17647726232568
ONEWEB-0294             
1 49083U 21075J   26160.02063197 -.00000360  00000+0 -10350-2 0  9993
2 49083  87.8950 352.2833 0001672  99.1846 260.9471 13.12443201233505
ONEWEB-0295             
1 49084U 21075K   26160.06257057  .00000040  00000+0  69977-4 0  9992
2 49084  87.9136   7.4863 0002127  91.1323 269.0052 13.17648081232527
ONEWEB-0296             
1 49085U 21075L   26160.07654144  .00000119  00000+0  29498-3 0  9992
2 49085  87.8952 352.2792 0002077  95.6049 264.5317 13.12442085233518
ONEWEB-0297             
1 49086U 21075M   26160.03079500 -.00000329  00000+0 -95119-3 0  9994
2 49086  87.8938 352.3006 0001924  89.7613 270.3736 13.12443830234119
ONEWEB-0298             
1 49087U 21075N   26160.06692802 -.00000751  00000+0 -19673-2 0  9993
2 49087  87.9134   7.4832 0002015  83.9207 276.2154 13.17659197232556
ONEWEB-0299             
1 49088U 21075P   26160.06848733  .00000010  00000+0 -70744-5 0  9996
2 49088  87.9148   7.4624 0002034  86.8302 273.3062 13.17648959232538
ONEWEB-0300             
1 49089U 21075Q   26160.02316839 -.00000393  00000+0 -11267-2 0  9997
2 49089  87.8952 352.2810 0001959  78.3126 281.8222 13.12443706234132
ONEWEB-0301             
1 49090U 21075R   26160.08331456 -.00000097  00000+0 -30461-3 0  9996
2 49090  87.8947 352.2665 0001794  77.6580 282.4749 13.12443274233500
ONEWEB-0302             
1 49091U 21075S   26160.06977017  .00000338  00000+0  90280-3 0  9995
2 49091  87.8951 352.2809 0001813  99.4116 260.7217 13.12442285233482
ONEWEB-0304             
1 49092U 21075T   26160.11910505  .00000030  00000+0  44341-4 0  9998
2 49092  87.9140   7.4753 0001999  88.2595 271.8766 13.17648960232511
ONEWEB-0305             
1 49093U 21075U   26160.11235704  .00000015  00000+0  44077-5 0  9990
2 49093  87.9147   7.4604 0002239  89.1790 270.9598 13.17648629232547
ONEWEB-0308             
1 49094U 21075V   26160.06299311  .00000439  00000+0  11853-2 0  9992
2 49094  87.8950 352.2746 0001792  88.4005 271.7329 13.12442848233497
ONEWEB-0309             
1 49095U 21075W   26160.11572458  .00000040  00000+0  71066-4 0  9997
2 49095  87.9140   7.4688 0001762 102.4675 257.6654 13.17648130232514
ONEWEB-0310             
1 49096U 21075X   26160.07823404  .00000062  00000+0  13833-3 0  9994
2 49096  87.8939 352.2938 0001773  89.2351 270.8981 13.12442293234120
ONEWEB-0311             
1 49097U 21075Y   26160.12249063 -.00000009  00000+0 -57327-4 0  9994
2 49097  87.9140   7.4668 0002305  84.5526 275.5868 13.17649749232561
