OBJECT_NAME,OBJECT_ID,EPOCH,MEAN_MOTION,ECCENTRICITY,INCLINATION,RA_OF_ASC_NODE,ARG_OF_PERICENTER,MEAN_ANOMALY,EPHEMERIS_TYPE,CLASSIFICATION_TYPE,NORAD_CAT_ID,ELEMENT_SET_NO,REV_AT_EPOCH,BSTAR,MEAN_MOTION_DOT,MEAN_MOTION_DDOT
ONEWEB-0277,2021-060AE,2026-06-08T05:33:39.608352,13.16593268,.0001887,87.9095,230.5626,100.5111,259.6233,0,U,48995,999,23838,.5125E-4,.32E-6,0
ONEWEB-0278,2021-060AF,2026-06-09T03:13:10.936704,13.16596594,.0002268,87.9103,230.3728,102.1127,258.0258,0,U,48996,999,23863,-.13815E-3,-.4E-6,0
ONEWEB-0279,2021-060AG,2026-06-08T05:31:22.711008,13.16594267,.0001826,87.9101,230.5509,95.3003,264.8336,0,U,48997,999,23844,.26508E-4,.23E-6,0
ONEWEB-0280,2021-060AH,2026-06-08T05:53:01.123296,13.16593938,.0001993,87.9099,230.5521,109.3350,250.7996,0,U,48998,999,23838,.15576E-3,.72E-6,0
ONEWEB-0281,2021-060AJ,2026-06-08T16:57:38.116224,13.16594021,.0002104,87.9099,230.4555,100.1169,260.0199,0,U,48999,999,23851,-.17511E-3,-.54E-6,0
ONEWEB-0282,2021-060AK,2026-06-09T04:37:32.193408,13.16597191,.0001897,87.9100,230.3674,101.7786,258.3558,0,U,49000,999,23855,.91863E-4,.48E-6,0
ONEWEB-0283,2021-060AL,2026-06-09T04:21:35.777376,13.16594187,.0001886,87.9099,230.3691,97.3485,262.7861,0,U,49001,999,23856,.4406E-3,.181E-5,0
ONEWEB-0284,2021-060AM,2026-06-09T02:23:03.071040,13.16593649,.0002145,87.9099,230.3787,108.2714,251.8650,0,U,49002,999,23853,.10231E-3,.52E-6,0
ONEWEB-0285,2021-075A,2026-06-09T01:19:43.936032,13.12443644,.0001744,87.8949,352.2795,89.7280,270.4049,0,U,49075,999,23414,.11358E-2,.421E-5,0
ONEWEB-0286,2021-075B,2026-06-09T00:53:54.441888,13.12443493,.0002021,87.8937,352.3007,87.1622,272.9738,0,U,49076,999,23349,-.38553E-3,-.126E-5,0
ONEWEB-0287,2021-075C,2026-06-09T02:49:04.854720,13.17648955,.0002268,87.9139,7.4714,87.9194,272.2197,0,U,49077,999,23256,-.35979E-4,-.1E-7,0
ONEWEB-0288,2021-075D,2026-06-09T02:09:43.853760,13.12442089,.0001976,87.8948,352.2659,92.5688,267.5666,0,U,49078,999,23412,-.71897E-3,-.246E-5,0
ONEWEB-0289,2021-075E,2026-06-09T01:55:25.614048,13.17648643,.0001701,87.9142,7.4955,99.1459,260.9865,0,U,49079,999,23313,.46418E-4,.31E-6,0
ONEWEB-0290,2021-075F,2026-06-09T01:16:44.872896,13.17648414,.0001594,87.9150,7.4720,101.5320,258.5991,0,U,49080,999,23254,-.43849E-4,-.4E-7,0
ONEWEB-0291,2021-075G,2026-06-09T02:44:13.539840,13.17648457,.0002099,87.9142,7.4682,95.0133,265.1238,0,U,49081,999,23254,-.18338E-4,.6E-7,0
ONEWEB-0293,2021-075H,2026-06-09T01:31:18.693120,13.17647726,.0001824,87.9138,7.4818,91.2092,268.9248,0,U,49082,999,23256,-.72516E-4,-.15E-6,0
ONEWEB-0294,2021-075J,2026-06-09T00:29:42.602208,13.12443201,.0001672,87.8950,352.2833,99.1846,260.9471,0,U,49083,999,23350,-.1035E-2,-.36E-5,0
ONEWEB-0295,2021-075K,2026-06-09T01:30:06.097248,13.17648081,.0002127,87.9136,7.4863,91.1323,269.0052,0,U,49084,999,23252,.69977E-4,.4E-6,0
ONEWEB-0296,2021-075L,2026-06-09T01:50:13.180416,13.12442085,.0002077,87.8952,352.2792,95.6049,264.5317,0,U,49085,999,23351,.29498E-3,.119E-5,0
ONEWEB-0297,2021-075M,2026-06-09T00:44:20.688000,13.12443830,.0001924,87.8938,352.3006,89.7613,270.3736,0,U,49086,999,23411,-.95119E-3,-.329E-5,0
ONEWEB-0298,2021-075N,2026-06-09T01:36:22.580928,13.17659197,.0002015,87.9134,7.4832,83.9207,276.2154,0,U,49087,999,23255,-.19673E-2,-.751E-5,0
ONEWEB-0299,2021-075P,2026-06-09T01:38:37.305312,13.17648959,.0002034,87.9148,7.4624,86.8302,273.3062,0,U,49088,999,23253,-.70744E-5,.1E-6,0
ONEWEB-0300,2021-075Q,2026-06-09T00:33:21.748896,13.12443706,.0001959,87.8952,352.2810,78.3126,281.8222,0,U,49089,999,23413,-.11267E-2,-.393E-5,0
ONEWEB-0301,2021-075R,2026-06-09T01:59:58.377984,13.12443274,.0001794,87.8947,352.2665,77.6580,282.4749,0,U,49090,999,23350,-.30461E-3,-.97E-6,0
ONEWEB-0302,2021-075S,2026-06-09T01:40:28.142688,13.12442285,.0001813,87.8951,352.2809,99.4116,260.7217,0,U,49091,999,23348,.9028E-3,.338E-5,0
ONEWEB-0304,2021-075T,2026-06-09T02:51:30.676320,13.17648960,.0001999,87.9140,7.4753,88.2595,271.8766,0,U,49092,999,23251,.44341E-4,.3E-6,0
ONEWEB-0305,2021-075U,2026-06-09T02:41:47.648256,13.17648629,.0002239,87.9147,7.4604,89.1790,270.9598,0,U,49093,999,23254,.44077E-5,.15E-6,0
ONEWEB-0308,2021-075V,2026-06-09T01:30:42.604704,13.12442848,.0001792,87.8950,352.2746,88.4005,271.7329,0,U,49094,999,23349,.11853E-2,.439E-5,0
ONEWEB-0309,2021-075W,2026-06-09T02:46:38.603712,13.17648130,.0001762,87.9140,7.4688,102.4675,257.6654,0,U,49095,999,23251,.71066E-4,.4E-6,0
ONEWEB-0310,2021-075X,2026-06-09T01:52:39.421056,13.12442293,.0001773,87.8939,352.2938,89.2351,270.8981,0,U,49096,999,23412,.13833E-3,.62E-6,0
ONEWEB-0311,2021-075Y,2026-06-09T02:56:23.190432,13.17649749,.0002305,87.9140,7.4668,84.5526,275.5868,0,U,49097,999,23256,-.57327E-4,-.9E-7,0
